{
  "type": "FeatureCollection",
  "features": [
    {
      "type": "Feature",
      "properties": {
        "norad_id": 32113,
        "name": "FENGYUN 1C DEB",
        "group": "fengyun-1c-debris",
        "lat": 8.214914337896912,
        "lon": -164.92650231588462,
        "alt_km": 871.126232820231,
        "timestamp": "2025-12-04T19:33:59.887726+00:00",
        "meta_object_name": "FENGYUN 1C DEB",
        "meta_object_id": "1999-025CRF",
        "meta_epoch": "2025-12-03T20:20:09.726720",
        "meta_mean_motion": 13.94518389,
        "meta_eccentricity": 0.0237724,
        "meta_inclination": 99.0277,
        "meta_ra_of_asc_node": 12.8111,
        "meta_arg_of_pericenter": 251.0269,
        "meta_mean_anomaly": 106.4996,
        "meta_ephemeris_type": 0,
        "meta_classification_type": "U",
        "meta_norad_cat_id": 32113,
        "meta_element_set_no": 999,
        "meta_rev_at_epoch": 62762,
        "meta_bstar": 0.0013246,
        "meta_mean_motion_dot": 2.191e-05,
        "meta_mean_motion_ddot": 0,
        "tle_line1": "1 32113U 99025CRF 25337.84733480  .00002191  00000+0  13246-2 0  9992",
        "tle_line2": "2 32113  99.0277  12.8111 0237724 251.0269 106.4996 13.94518389627629"
      },
      "geometry": {
        "type": "Point",
        "coordinates": [
          -164.92650231588462,
          8.214914337896912
        ]
      }
    },
    {
      "type": "Feature",
      "properties": {
        "norad_id": 32114,
        "name": "FENGYUN 1C DEB",
        "group": "fengyun-1c-debris",
        "lat": 60.08498445170496,
        "lon": -68.22392970938218,
        "alt_km": 644.9898135081748,
        "timestamp": "2025-12-04T19:33:59.887737+00:00",
        "meta_object_name": "FENGYUN 1C DEB",
        "meta_object_id": "1999-025CRG",
        "meta_epoch": "2025-11-30T01:10:09.442560",
        "meta_mean_motion": 14.76162507,
        "meta_eccentricity": 0.00446183,
        "meta_inclination": 99.9271,
        "meta_ra_of_asc_node": 88.2086,
        "meta_arg_of_pericenter": 23.884,
        "meta_mean_anomaly": 336.442,
        "meta_ephemeris_type": 0,
        "meta_classification_type": "U",
        "meta_norad_cat_id": 32114,
        "meta_element_set_no": 999,
        "meta_rev_at_epoch": 65542,
        "meta_bstar": 0.0027760533,
        "meta_mean_motion_dot": 0.00019481,
        "meta_mean_motion_ddot": 0,
        "tle_line1": "1 32114U 99025CRG 25334.04872040  .00019481  00000+0  27761-2 0  9995",
        "tle_line2": "2 32114  99.9271  88.2086 0044618  23.8840 336.4420 14.76162507655423"
      },
      "geometry": {
        "type": "Point",
        "coordinates": [
          -68.22392970938218,
          60.08498445170496
        ]
      }
    },
    {
      "type": "Feature",
      "properties": {
        "norad_id": 32117,
        "name": "FENGYUN 1C DEB",
        "group": "fengyun-1c-debris",
        "lat": 0.40381812444174403,
        "lon": 24.253747137169825,
        "alt_km": 823.1018297563314,
        "timestamp": "2025-12-04T19:33:59.887746+00:00",
        "meta_object_name": "FENGYUN 1C DEB",
        "meta_object_id": "1999-025CRK",
        "meta_epoch": "2025-12-01T02:10:47.284320",
        "meta_mean_motion": 14.23859162,
        "meta_eccentricity": 0.00279616,
        "meta_inclination": 98.6131,
        "meta_ra_of_asc_node": 20.6672,
        "meta_arg_of_pericenter": 124.8257,
        "meta_mean_anomaly": 235.5559,
        "meta_ephemeris_type": 0,
        "meta_classification_type": "U",
        "meta_norad_cat_id": 32117,
        "meta_element_set_no": 999,
        "meta_rev_at_epoch": 94631,
        "meta_bstar": 0.0010989786,
        "meta_mean_motion_dot": 2.484e-05,
        "meta_mean_motion_ddot": 0,
        "tle_line1": "1 32117U 99025CRK 25335.09082505  .00002484  00000+0  10990-2 0  9994",
        "tle_line2": "2 32117  98.6131  20.6672 0027961 124.8257 235.5559 14.23859162946319"
      },
      "geometry": {
        "type": "Point",
        "coordinates": [
          24.253747137169825,
          0.40381812444174403
        ]
      }
    },
    {
      "type": "Feature",
      "properties": {
        "norad_id": 32119,
        "name": "FENGYUN 1C DEB",
        "group": "fengyun-1c-debris",
        "lat": -78.92281913712931,
        "lon": -42.324940234827004,
        "alt_km": 951.9783117339493,
        "timestamp": "2025-12-04T19:33:59.887755+00:00",
        "meta_object_name": "FENGYUN 1C DEB",
        "meta_object_id": "1999-025CRM",
        "meta_epoch": "2025-12-02T08:06:34.750944",
        "meta_mean_motion": 14.02777574,
        "meta_eccentricity": 0.00850504,
        "meta_inclination": 99.8869,
        "meta_ra_of_asc_node": 197.9631,
        "meta_arg_of_pericenter": 80.269,
        "meta_mean_anomaly": 280.8067,
        "meta_ephemeris_type": 0,
        "meta_classification_type": "U",
        "meta_norad_cat_id": 32119,
        "meta_element_set_no": 999,
        "meta_rev_at_epoch": 93582,
        "meta_bstar": 0.0011651066,
        "meta_mean_motion_dot": 1.81e-05,
        "meta_mean_motion_ddot": 0,
        "tle_line1": "1 32119U 99025CRM 25336.33790221  .00001810  00000+0  11651-2 0  9992",
        "tle_line2": "2 32119  99.8869 197.9631 0085050  80.2690 280.8067 14.02777574935828"
      },
      "geometry": {
        "type": "Point",
        "coordinates": [
          -42.324940234827004,
          -78.92281913712931
        ]
      }
    },
    {
      "type": "Feature",
      "properties": {
        "norad_id": 32123,
        "name": "FENGYUN 1C DEB",
        "group": "fengyun-1c-debris",
        "lat": -51.731284592532965,
        "lon": 157.49211639654803,
        "alt_km": 584.2412715529126,
        "timestamp": "2025-12-04T19:33:59.887765+00:00",
        "meta_object_name": "FENGYUN 1C DEB",
        "meta_object_id": "1999-025CRR",
        "meta_epoch": "2025-12-04T05:50:27.744288",
        "meta_mean_motion": 14.61420974,
        "meta_eccentricity": 0.01598632,
        "meta_inclination": 98.94,
        "meta_ra_of_asc_node": 145.3638,
        "meta_arg_of_pericenter": 319.3889,
        "meta_mean_anomaly": 221.2929,
        "meta_ephemeris_type": 0,
        "meta_classification_type": "U",
        "meta_norad_cat_id": 32123,
        "meta_element_set_no": 999,
        "meta_rev_at_epoch": 71250,
        "meta_bstar": 0.00040947451,
        "meta_mean_motion_dot": 2.365e-05,
        "meta_mean_motion_ddot": 0,
        "tle_line1": "1 32123U 99025CRR 25338.24337667  .00002365  00000+0  40947-3 0  9997",
        "tle_line2": "2 32123  98.9400 145.3638 0159863 319.3889 221.2929 14.61420974712506"
      },
      "geometry": {
        "type": "Point",
        "coordinates": [
          157.49211639654803,
          -51.731284592532965
        ]
      }
    },
    {
      "type": "Feature",
      "properties": {
        "norad_id": 32125,
        "name": "FENGYUN 1C DEB",
        "group": "fengyun-1c-debris",
        "lat": -37.45605151854052,
        "lon": 131.26576191902183,
        "alt_km": 748.3995234685208,
        "timestamp": "2025-12-04T19:33:59.887774+00:00",
        "meta_object_name": "FENGYUN 1C DEB",
        "meta_object_id": "1999-025CRT",
        "meta_epoch": "2025-11-30T16:29:46.563072",
        "meta_mean_motion": 14.69027096,
        "meta_eccentricity": 0.01775541,
        "meta_inclination": 99.061,
        "meta_ra_of_asc_node": 313.7121,
        "meta_arg_of_pericenter": 0.429,
        "meta_mean_anomaly": 359.7033,
        "meta_ephemeris_type": 0,
        "meta_classification_type": "U",
        "meta_norad_cat_id": 32125,
        "meta_element_set_no": 999,
        "meta_rev_at_epoch": 70346,
        "meta_bstar": 0.0033542642,
        "meta_mean_motion_dot": 0.00025065,
        "meta_mean_motion_ddot": 0,
        "tle_line1": "1 32125U 99025CRT 25334.68734448  .00025065  00000+0  33543-2 0  9996",
        "tle_line2": "2 32125  99.0610 313.7121 0177554   0.4290 359.7033 14.69027096703466"
      },
      "geometry": {
        "type": "Point",
        "coordinates": [
          131.26576191902183,
          -37.45605151854052
        ]
      }
    },
    {
      "type": "Feature",
      "properties": {
        "norad_id": 32126,
        "name": "FENGYUN 1C DEB",
        "group": "fengyun-1c-debris",
        "lat": -32.22982201917418,
        "lon": -138.73511552223155,
        "alt_km": 919.8173000990764,
        "timestamp": "2025-12-04T19:33:59.887783+00:00",
        "meta_object_name": "FENGYUN 1C DEB",
        "meta_object_id": "1999-025CRU",
        "meta_epoch": "2025-12-03T22:29:09.800736",
        "meta_mean_motion": 13.56772402,
        "meta_eccentricity": 0.02816132,
        "meta_inclination": 99.1096,
        "meta_ra_of_asc_node": 214.6454,
        "meta_arg_of_pericenter": 278.1018,
        "meta_mean_anomaly": 78.8267,
        "meta_ephemeris_type": 0,
        "meta_classification_type": "U",
        "meta_norad_cat_id": 32126,
        "meta_element_set_no": 999,
        "meta_rev_at_epoch": 61595,
        "meta_bstar": 0.0019730414,
        "meta_mean_motion_dot": 1.764e-05,
        "meta_mean_motion_ddot": 0,
        "tle_line1": "1 32126U 99025CRU 25337.93691899  .00001764  00000+0  19730-2 0  9992",
        "tle_line2": "2 32126  99.1096 214.6454 0281613 278.1018  78.8267 13.56772402615955"
      },
      "geometry": {
        "type": "Point",
        "coordinates": [
          -138.73511552223155,
          -32.22982201917418
        ]
      }
    }
  ]
}